ORBCOMM FM114 [+]       
1 41179U 15081A   24038.57523766  .00001715  00000+0  42119-3 0  9998
2 41179  47.0027 104.1799 0002508 245.4329 114.6294 14.56278608432237
ORBCOMM FM119 [-]       
1 41180U 15081B   24038.61257015  .00001378  00000+0  34580-3 0  9994
2 41180  47.0026  13.1941 0002250 297.3725  62.6930 14.56266489433443
ORBCOMM FM105 [-]       
1 41181U 15081C   24038.49988008  .00000602  00000+0  21926-3 0  9993
2 41181  47.0033 332.1875 0002437 268.2580  91.8021 14.44218744429072
ORBCOMM FM110 [+]       
1 41182U 15081D   24038.89534135  .00001578  00000+0  39047-3 0  9992
2 41182  47.0015 102.0879 0000878  24.6295 335.4631 14.56276869432102
ORBCOMM FM118 [+]       
1 41183U 15081E   24038.87262245  .00001785  00000+0  43676-3 0  9994
2 41183  47.0039 102.4817 0001037  22.9968 337.0963 14.56277414432205
ORBCOMM FM112 [+]       
1 41184U 15081F   24038.65925559  .00001659  00000+0  40873-3 0  9991
2 41184  47.0008  12.2137 0002129 287.1160  72.9492 14.56273689433390
ORBCOMM FM113 [+]       
1 41185U 15081G   24038.63613742  .00001326  00000+0  33430-3 0  9990
2 41185  47.0026  12.5706 0001799 299.9178  60.1528 14.56257760433377
